{"type":"FeatureCollection", "features":[
{"type":"Feature","geometry":{"type":"Polygon","coordinates":[[[-75.553954,6.297568,0],[-75.553235,6.298659,0],[-75.553377,6.299047,0],[-75.553412,6.299402,0],[-75.553043,6.29995,0],[-75.552739,6.300497,0],[-75.553118,6.300802,0],[-75.552835,6.301365,0],[-75.552488,6.301885,0],[-75.552375,6.302451,0],[-75.552435,6.302564,0],[-75.552408,6.302719,0],[-75.55205,6.30348,0],[-75.551735,6.30403,0],[-75.551292,6.303832,0],[-75.550787,6.305146,0],[-75.550839,6.306031,0],[-75.550604,6.306607,0],[-75.550499,6.307464,0],[-75.549995,6.307447,0],[-75.550073,6.307872,0],[-75.549777,6.308307,0],[-75.548747,6.308523,0],[-75.548067,6.308379,0],[-75.547234,6.308067,0],[-75.545856,6.307426,0],[-75.545087,6.307036,0],[-75.544822,6.307702,0],[-75.544292,6.309122,0],[-75.544916,6.309691,0],[-75.54556,6.310068,0],[-75.546324,6.310023,0],[-75.546577,6.310069,0],[-75.546496,6.310556,0],[-75.546499,6.310666,0],[-75.54655,6.310787,0],[-75.546878,6.311223,0],[-75.547142,6.311462,0],[-75.547303,6.311464,0],[-75.547509,6.311316,0],[-75.547667,6.311141,0],[-75.548396,6.311841,0],[-75.54961,6.312317,0],[-75.549731,6.312792,0],[-75.549212,6.313823,0],[-75.547912,6.315151,0],[-75.547224,6.316096,0],[-75.546976,6.317086,0],[-75.546954,6.318546,0],[-75.547102,6.3212,0],[-75.5462818,6.3224071,0],[-75.5473949,6.323095,0],[-75.5484114,6.3240601,0],[-75.5494145,6.3245454,0],[-75.5515172,6.3266837,0],[-75.5550434,6.3271971,0],[-75.5578615,6.3269533,0],[-75.5581663,6.327542,0],[-75.5609817,6.327299,0],[-75.5636652,6.3301066,0],[-75.5638851,6.3303572,0],[-75.5658757,6.3303473,0],[-75.5663747,6.3306756,0],[-75.5673592,6.3307278,0],[-75.568077,6.331142,0],[-75.568301,6.330242,0],[-75.568835,6.328143,0],[-75.569846,6.328096,0],[-75.571018,6.327911,0],[-75.572099,6.327022,0],[-75.573016,6.326471,0],[-75.573261,6.325829,0],[-75.572972,6.32556,0],[-75.572433,6.326036,0],[-75.571722,6.326224,0],[-75.571143,6.325484,0],[-75.57083,6.32533,0],[-75.570583,6.325109,0],[-75.570442,6.324739,0],[-75.570631,6.324538,0],[-75.570431,6.323208,0],[-75.570147,6.323108,0],[-75.568669,6.322429,0],[-75.568845,6.321778,0],[-75.569365,6.32086,0],[-75.569761,6.319845,0],[-75.568671,6.319112,0],[-75.570114,6.316769,0],[-75.56999,6.316302,0],[-75.569801,6.316006,0],[-75.570127,6.31513,0],[-75.570317,6.314063,0],[-75.570561,6.313988,0],[-75.573233,6.31363,0],[-75.575892,6.314825,0],[-75.578278,6.315518,0],[-75.578508,6.314864,0],[-75.579799,6.315266,0],[-75.582205,6.316244,0],[-75.583866,6.316755,0],[-75.583949,6.316929,0],[-75.584547,6.316939,0],[-75.584743,6.317023,0],[-75.585222,6.31699,0],[-75.585571,6.316926,0],[-75.58534,6.316423,0],[-75.585222,6.31575,0],[-75.585151,6.315137,0],[-75.585119,6.314525,0],[-75.584335,6.314169,0],[-75.583551,6.313835,0],[-75.583625,6.3136,0],[-75.58344,6.313513,0],[-75.583239,6.313502,0],[-75.583352,6.312743,0],[-75.583598,6.31191,0],[-75.583798,6.311274,0],[-75.584131,6.311418,0],[-75.584459,6.311444,0],[-75.584595,6.311324,0],[-75.584826,6.310455,0],[-75.584353,6.310362,0],[-75.583862,6.31025,0],[-75.582604,6.309748,0],[-75.582698,6.309427,0],[-75.582493,6.308872,0],[-75.582369,6.308321,0],[-75.582083,6.308053,0],[-75.582048,6.307802,0],[-75.582255,6.307658,0],[-75.58231,6.30757,0],[-75.582362,6.307312,0],[-75.582279,6.307012,0],[-75.58206,6.306807,0],[-75.581952,6.306446,0],[-75.581939,6.30616,0],[-75.581895,6.305756,0],[-75.581872,6.305485,0],[-75.581852,6.305209,0],[-75.581839,6.304953,0],[-75.581837,6.304715,0],[-75.581888,6.304421,0],[-75.582005,6.304098,0],[-75.582293,6.303638,0],[-75.582355,6.30345,0],[-75.582271,6.303256,0],[-75.581958,6.30275,0],[-75.581888,6.302372,0],[-75.581856,6.301994,0],[-75.581796,6.300821,0],[-75.581901,6.300458,0],[-75.582018,6.299988,0],[-75.582069,6.299481,0],[-75.58213,6.298962,0],[-75.582405,6.298521,0],[-75.582369,6.297792,0],[-75.582478,6.297449,0],[-75.582479,6.297224,0],[-75.583219,6.296249,0],[-75.583261,6.295817,0],[-75.583265,6.295369,0],[-75.583387,6.29526,0],[-75.58353,6.295161,0],[-75.583923,6.294351,0],[-75.584067,6.293663,0],[-75.584146,6.293015,0],[-75.584178,6.292367,0],[-75.578245,6.290398,0],[-75.572218,6.288448,0],[-75.571221,6.288114,0],[-75.570309,6.288014,0],[-75.569677,6.288159,0],[-75.568808,6.287963,0],[-75.567478,6.287092,0],[-75.566385,6.286242,0],[-75.565707,6.289051,0],[-75.564236,6.291199,0],[-75.563161,6.29347,0],[-75.561357,6.295176,0],[-75.559737,6.297042,0],[-75.557935,6.300017,0],[-75.553954,6.297568,0]]]},"properties":{"name":"Bello","id": 1}},
{"type":"Feature","geometry":{"type":"Polygon","coordinates":[[[-75.57096,6.358244,0],[-75.572124,6.356711,0],[-75.571762,6.355326,0],[-75.569821,6.354142,0],[-75.56958,6.3537,0],[-75.569425,6.352149,0],[-75.571694,6.347389,0],[-75.572373,6.347263,0],[-75.573416,6.347623,0],[-75.575221,6.347097,0],[-75.574531,6.346058,0],[-75.573926,6.345828,0],[-75.573305,6.344655,0],[-75.574113,6.342646,0],[-75.576824,6.34446,0],[-75.577418,6.343278,0],[-75.576665,6.342616,0],[-75.575719,6.342252,0],[-75.573597,6.340372,0],[-75.572865,6.339942,0],[-75.572295,6.339838,0],[-75.572477,6.338811,0],[-75.574059,6.339045,0],[-75.574489,6.33948,0],[-75.574899,6.338306,0],[-75.574623,6.336602,0],[-75.574032,6.336465,0],[-75.573941,6.336144,0],[-75.572829,6.334631,0],[-75.570843,6.334678,0],[-75.570031,6.335182,0],[-75.568574,6.335478,0],[-75.567854,6.335401,0],[-75.567307,6.335074,0],[-75.5680754,6.3310786,0],[-75.5673592,6.3307278,0],[-75.5663747,6.3306756,0],[-75.5658757,6.3303473,0],[-75.5638851,6.3303572,0],[-75.5622698,6.3286655,0],[-75.5609817,6.327299,0],[-75.5579624,6.327494,0],[-75.5578615,6.3269533,0],[-75.5550434,6.3271971,0],[-75.5515172,6.3266837,0],[-75.5494145,6.3245454,0],[-75.5484114,6.3240601,0],[-75.5473949,6.323095,0],[-75.5462818,6.3224071,0],[-75.546016,6.325853,0],[-75.544924,6.326468,0],[-75.544841,6.326734,0],[-75.543703,6.32784,0],[-75.542363,6.326072,0],[-75.540685,6.325674,0],[-75.538793,6.326149,0],[-75.538067,6.32855,0],[-75.536101,6.327847,0],[-75.522786,6.3385585,0],[-75.5201546,6.3394715,0],[-75.5194611,6.3409464,0],[-75.5194631,6.3416305,0],[-75.5190037,6.3422613,0],[-75.5167124,6.3440304,0],[-75.5152502,6.3443072,0],[-75.5136915,6.3447759,0],[-75.5141306,6.3456546,0],[-75.5135885,6.3480239,0],[-75.5107317,6.3489634,0],[-75.5078321,6.3503187,0],[-75.5083441,6.3513277,0],[-75.5102538,6.3543995,0],[-75.5146117,6.3541018,0],[-75.5152989,6.3533662,0],[-75.5158677,6.3541714,0],[-75.5172091,6.3543368,0],[-75.520042,6.3531534,0],[-75.519672,6.3521911,0],[-75.5207396,6.3512928,0],[-75.5199941,6.3506397,0],[-75.5190769,6.3503066,0],[-75.521688,6.3497645,0],[-75.5249306,6.3494996,0],[-75.527036,6.348531,0],[-75.527696,6.349003,0],[-75.532808,6.349368,0],[-75.5393853,6.3513976,0],[-75.5404694,6.3513158,0],[-75.5421383,6.3484884,0],[-75.5423236,6.3477997,0],[-75.542981,6.347335,0],[-75.544397,6.347258,0],[-75.544409,6.348294,0],[-75.544903,6.348764,0],[-75.549306,6.350199,0],[-75.549627,6.350517,0],[-75.550065,6.350706,0],[-75.552183,6.350209,0],[-75.552932,6.350706,0],[-75.554253,6.349707,0],[-75.555683,6.349823,0],[-75.555579,6.350681,0],[-75.557186,6.35258,0],[-75.559597,6.353004,0],[-75.561879,6.353214,0],[-75.562475,6.352923,0],[-75.56276,6.352366,0],[-75.563813,6.351667,0],[-75.568728,6.3576,0],[-75.57096,6.358244,0]]]},"properties":{"name":"Niquia","id": 2}},
{"type":"Feature","geometry":{"type":"Polygon","coordinates":[[[-75.569791,6.247149,0],[-75.56859,6.249769,0],[-75.568075,6.251073,0],[-75.567731,6.252409,0],[-75.569256,6.253019,0],[-75.570149,6.253376,0],[-75.570994,6.253777,0],[-75.571211,6.254356,0],[-75.57617,6.257152,0],[-75.576494,6.256578,0],[-75.577394,6.258293,0],[-75.58264,6.259762,0],[-75.583475,6.260677,0],[-75.584032,6.261912,0],[-75.587201,6.265514,0],[-75.589751,6.267187,0],[-75.591808,6.269202,0],[-75.594799,6.273031,0],[-75.596911,6.273424,0],[-75.59885,6.274734,0],[-75.5988311,6.2730898,0],[-75.5990169,6.2729954,0],[-75.5993207,6.2730877,0],[-75.5995682,6.2732892,0],[-75.5996356,6.2734647,0],[-75.5996387,6.2736561,0],[-75.5997871,6.2740063,0],[-75.6000624,6.2740721,0],[-75.6002698,6.2739077,0],[-75.6006489,6.2740366,0],[-75.6009508,6.2741001,0],[-75.6014056,6.2743877,0],[-75.601517,6.2743768,0],[-75.6018216,6.2744806,0],[-75.6022885,6.2744508,0],[-75.602667,6.2749166,0],[-75.6030724,6.2753824,0],[-75.603362,6.2752948,0],[-75.603555,6.2751006,0],[-75.6037498,6.274965,0],[-75.6041056,6.2750747,0],[-75.6048386,6.275454,0],[-75.6051121,6.2751949,0],[-75.605257,6.2751359,0],[-75.605426,6.2751035,0],[-75.6055869,6.2749907,0],[-75.6056419,6.2748313,0],[-75.6056298,6.2746639,0],[-75.6054983,6.2744691,0],[-75.6053132,6.2743251,0],[-75.6051449,6.2742243,0],[-75.604931,6.2741795,0],[-75.6048473,6.2742182,0],[-75.6047717,6.2742648,0],[-75.6047383,6.2744921,0],[-75.6046728,6.2745994,0],[-75.6045712,6.2745953,0],[-75.6044776,6.2745619,0],[-75.6043385,6.2744699,0],[-75.6042127,6.2743699,0],[-75.604091,6.2742552,0],[-75.6039934,6.2741271,0],[-75.6038492,6.2738236,0],[-75.605561,6.272107,0],[-75.603364,6.272295,0],[-75.60518,6.270818,0],[-75.607162,6.26917,0],[-75.60397,6.265961,0],[-75.604545,6.265139,0],[-75.604886,6.264684,0],[-75.605561,6.265789,0],[-75.606847,6.265415,0],[-75.607088,6.264252,0],[-75.607609,6.264646,0],[-75.608288,6.265129,0],[-75.608747,6.264172,0],[-75.610232,6.26484,0],[-75.611765,6.264193,0],[-75.613271,6.263717,0],[-75.614131,6.263387,0],[-75.614056,6.263077,0],[-75.613797,6.262733,0],[-75.613328,6.262442,0],[-75.613476,6.262019,0],[-75.613634,6.261746,0],[-75.613629,6.261519,0],[-75.613909,6.261002,0],[-75.613676,6.260434,0],[-75.613493,6.260102,0],[-75.613621,6.25985,0],[-75.613213,6.259746,0],[-75.613433,6.259124,0],[-75.613776,6.258631,0],[-75.614447,6.257591,0],[-75.614235,6.257206,0],[-75.61383,6.256917,0],[-75.612976,6.25637,0],[-75.612224,6.255982,0],[-75.611385,6.255936,0],[-75.60773,6.256165,0],[-75.606731,6.256194,0],[-75.605688,6.256448,0],[-75.605026,6.256914,0],[-75.604434,6.257407,0],[-75.603063,6.258575,0],[-75.602402,6.259095,0],[-75.601612,6.259466,0],[-75.598533,6.258799,0],[-75.597549,6.258676,0],[-75.5965,6.258426,0],[-75.59529,6.258212,0],[-75.594381,6.25802,0],[-75.593505,6.257634,0],[-75.592746,6.256881,0],[-75.592192,6.255543,0],[-75.591465,6.254205,0],[-75.590954,6.253858,0],[-75.590303,6.253607,0],[-75.589609,6.253355,0],[-75.588775,6.253328,0],[-75.585991,6.253248,0],[-75.585283,6.253195,0],[-75.584484,6.253205,0],[-75.582896,6.252987,0],[-75.58173,6.252582,0],[-75.58081,6.252082,0],[-75.57931,6.250965,0],[-75.57869,6.250297,0],[-75.57423,6.24868,0],[-75.569791,6.247149,0]]]},"properties":{"name":"Calasanz","id": 3}},
{"type":"Feature","geometry":{"type":"Polygon","coordinates":[[[-75.592096,6.19241,0],[-75.583172,6.191324,0],[-75.581697,6.195339,0],[-75.58156,6.195296,0],[-75.579328,6.201909,0],[-75.579565,6.203936,0],[-75.578657,6.20896,0],[-75.5772358,6.2205003,0],[-75.5758814,6.2311766,0],[-75.577617,6.23187,0],[-75.589542,6.23149,0],[-75.595191,6.231361,0],[-75.600154,6.231168,0],[-75.6017,6.231072,0],[-75.603022,6.231189,0],[-75.605739,6.231103,0],[-75.606584,6.231263,0],[-75.609816,6.231076,0],[-75.613385,6.231057,0],[-75.614714,6.231602,0],[-75.615088,6.231832,0],[-75.616128,6.231742,0],[-75.614128,6.228381,0],[-75.611625,6.224696,0],[-75.610919,6.224858,0],[-75.60987,6.22439,0],[-75.608731,6.224148,0],[-75.608672,6.221705,0],[-75.611737,6.221144,0],[-75.613275,6.220484,0],[-75.613534,6.21968,0],[-75.611894,6.218126,0],[-75.609872,6.219333,0],[-75.6075234,6.2137455,0],[-75.6074968,6.2131619,0],[-75.6076204,6.2127276,0],[-75.6080608,6.2118803,0],[-75.6075156,6.2115044,0],[-75.6073593,6.2110738,0],[-75.6070647,6.2111675,0],[-75.6070518,6.2110239,0],[-75.6069723,6.2108379,0],[-75.6068254,6.2106412,0],[-75.6066302,6.2105565,0],[-75.6062767,6.2107572,0],[-75.6058535,6.2108351,0],[-75.6057915,6.210523,0],[-75.6055108,6.2105896,0],[-75.6054527,6.2103556,0],[-75.6053812,6.2102949,0],[-75.6053204,6.2101102,0],[-75.6052646,6.2100352,0],[-75.6052087,6.2099629,0],[-75.6057679,6.2095571,0],[-75.6060488,6.2094542,0],[-75.6062278,6.209266,0],[-75.6066992,6.2090725,0],[-75.6070793,6.2087936,0],[-75.6075245,6.2088665,0],[-75.6079026,6.209158,0],[-75.6081721,6.2091602,0],[-75.6084309,6.2092878,0],[-75.6086556,6.2094762,0],[-75.609502,6.205032,0],[-75.603324,6.202212,0],[-75.600128,6.200525,0],[-75.599281,6.196866,0],[-75.596978,6.195366,0],[-75.595418,6.194196,0],[-75.595413,6.193646,0],[-75.592076,6.192942,0],[-75.592096,6.19241,0]]]},"properties":{"name":"La Mota","id": 4}},
{"type":"Feature","geometry":{"type":"Polygon","coordinates":[[[-75.589698,6.231457,0],[-75.583797,6.231738,0],[-75.577617,6.23187,0],[-75.577691,6.233419,0],[-75.577271,6.234946,0],[-75.576776,6.2364,0],[-75.575938,6.237746,0],[-75.575423,6.239314,0],[-75.573181,6.238343,0],[-75.571472,6.242631,0],[-75.569764,6.247217,0],[-75.577628,6.249926,0],[-75.57906,6.250779,0],[-75.581168,6.252517,0],[-75.582496,6.253003,0],[-75.583953,6.253104,0],[-75.585632,6.253003,0],[-75.588191,6.253584,0],[-75.590476,6.25368,0],[-75.591549,6.254341,0],[-75.592176,6.255813,0],[-75.592911,6.257285,0],[-75.5937,6.257882,0],[-75.594488,6.258138,0],[-75.598534,6.258879,0],[-75.60004,6.259228,0],[-75.601492,6.259386,0],[-75.602435,6.259072,0],[-75.603207,6.258523,0],[-75.60441,6.257516,0],[-75.605312,6.256816,0],[-75.606306,6.256276,0],[-75.606928,6.256173,0],[-75.608868,6.256101,0],[-75.611134,6.255973,0],[-75.612014,6.255002,0],[-75.613026,6.255478,0],[-75.614361,6.256173,0],[-75.61384,6.256671,0],[-75.614244,6.256929,0],[-75.614744,6.257133,0],[-75.61392,6.258394,0],[-75.613513,6.259035,0],[-75.613355,6.259297,0],[-75.613202,6.25974,0],[-75.614033,6.25983,0],[-75.615074,6.259834,0],[-75.616623,6.259944,0],[-75.617406,6.25966,0],[-75.617917,6.259584,0],[-75.618252,6.25944,0],[-75.619613,6.259399,0],[-75.619404,6.259013,0],[-75.619335,6.258686,0],[-75.619401,6.25842,0],[-75.621013,6.258906,0],[-75.621402,6.257884,0],[-75.622091,6.258132,0],[-75.62213,6.257601,0],[-75.622576,6.25685,0],[-75.622925,6.257156,0],[-75.623212,6.25718,0],[-75.623424,6.256826,0],[-75.623279,6.256316,0],[-75.622725,6.25557,0],[-75.62179,6.254666,0],[-75.621732,6.254052,0],[-75.621494,6.254214,0],[-75.62138,6.254514,0],[-75.621316,6.253922,0],[-75.62137,6.253304,0],[-75.621954,6.253189,0],[-75.622077,6.252953,0],[-75.622092,6.252584,0],[-75.622097,6.252273,0],[-75.622021,6.251984,0],[-75.621686,6.251166,0],[-75.620027,6.251743,0],[-75.61931,6.252149,0],[-75.618497,6.252528,0],[-75.618603,6.251311,0],[-75.618658,6.250396,0],[-75.618668,6.249491,0],[-75.616897,6.248371,0],[-75.616167,6.247931,0],[-75.615605,6.247249,0],[-75.616528,6.246212,0],[-75.617386,6.245164,0],[-75.618208,6.24536,0],[-75.6202,6.245535,0],[-75.620892,6.245501,0],[-75.621166,6.245726,0],[-75.621646,6.245199,0],[-75.622031,6.24465,0],[-75.622949,6.243601,0],[-75.622934,6.243503,0],[-75.622592,6.243405,0],[-75.622476,6.243246,0],[-75.622186,6.243193,0],[-75.621176,6.241767,0],[-75.619619,6.241905,0],[-75.618797,6.241971,0],[-75.618034,6.241824,0],[-75.617056,6.242172,0],[-75.615903,6.241692,0],[-75.61597,6.240911,0],[-75.613975,6.236821,0],[-75.615773,6.236345,0],[-75.617486,6.236632,0],[-75.617979,6.235592,0],[-75.617754,6.235296,0],[-75.617388,6.235054,0],[-75.616556,6.234884,0],[-75.616215,6.234672,0],[-75.615836,6.234582,0],[-75.615152,6.234517,0],[-75.615729,6.233156,0],[-75.616128,6.231742,0],[-75.615088,6.231832,0],[-75.613385,6.231057,0],[-75.606584,6.231263,0],[-75.603022,6.231189,0],[-75.6017,6.231072,0],[-75.595699,6.23135,0],[-75.589698,6.231457,0]]]},"properties":{"name":"America","id": 5}},
{"type":"Feature","geometry":{"type":"Polygon","coordinates":[[[-75.60112,6.159084,0],[-75.599604,6.156114,0],[-75.595685,6.154936,0],[-75.589248,6.15372,0],[-75.5865014,6.1512973,0],[-75.5822956,6.1493652,0],[-75.5798065,6.1478704,0],[-75.5758583,6.1477411,0],[-75.573329,6.1535573,0],[-75.5726598,6.1541507,0],[-75.5724197,6.1550108,0],[-75.572822,6.156403,0],[-75.570486,6.160256,0],[-75.569747,6.160689,0],[-75.569029,6.1614,0],[-75.56867,6.163432,0],[-75.56949,6.163795,0],[-75.569893,6.164766,0],[-75.569303,6.167059,0],[-75.567704,6.16741,0],[-75.566041,6.167463,0],[-75.564872,6.167122,0],[-75.563015,6.16727,0],[-75.562393,6.167439,0],[-75.560955,6.170614,0],[-75.560232,6.170741,0],[-75.561054,6.175049,0],[-75.561431,6.176732,0],[-75.561156,6.17771,0],[-75.561686,6.178196,0],[-75.562044,6.179216,0],[-75.561268,6.180083,0],[-75.560815,6.180096,0],[-75.562096,6.181098,0],[-75.564088,6.182025,0],[-75.567084,6.182427,0],[-75.5672,6.182627,0],[-75.567664,6.183024,0],[-75.568195,6.183168,0],[-75.568584,6.183141,0],[-75.56916,6.183021,0],[-75.56989,6.183424,0],[-75.571325,6.183997,0],[-75.571786,6.183939,0],[-75.573068,6.184408,0],[-75.573701,6.184157,0],[-75.575177,6.184691,0],[-75.576866,6.184824,0],[-75.577832,6.185368,0],[-75.578567,6.185661,0],[-75.579356,6.183907,0],[-75.579817,6.184035,0],[-75.580396,6.186824,0],[-75.581437,6.1878,0],[-75.582692,6.188275,0],[-75.583384,6.188771,0],[-75.584157,6.188083,0],[-75.585353,6.186973,0],[-75.586153,6.186475,0],[-75.588954,6.184093,0],[-75.590573,6.180673,0],[-75.593582,6.177254,0],[-75.599199,6.172822,0],[-75.601817,6.17086,0],[-75.602418,6.168044,0],[-75.603405,6.164822,0],[-75.605186,6.16318,0],[-75.602074,6.160257,0],[-75.60112,6.159084,0]]]},"properties":{"name":"Envigado","id": 6}},
{"type":"Feature","geometry":{"type":"Polygon","coordinates":[[[-75.576494,6.256578,0],[-75.573782,6.2611,0],[-75.572317,6.265108,0],[-75.571958,6.266408,0],[-75.569555,6.277345,0],[-75.56917,6.278914,0],[-75.569215,6.28042,0],[-75.570286,6.28082,0],[-75.571786,6.281071,0],[-75.571892,6.281788,0],[-75.572171,6.282153,0],[-75.571933,6.283126,0],[-75.570917,6.285425,0],[-75.570323,6.287108,0],[-75.57033,6.287938,0],[-75.571097,6.288057,0],[-75.572148,6.288378,0],[-75.573841,6.288979,0],[-75.57725,6.290095,0],[-75.584207,6.292359,0],[-75.585936,6.292486,0],[-75.586562,6.293145,0],[-75.587787,6.292057,0],[-75.588203,6.292271,0],[-75.5882,6.292719,0],[-75.587764,6.293078,0],[-75.588554,6.293748,0],[-75.589642,6.29223,0],[-75.589431,6.291332,0],[-75.590048,6.290932,0],[-75.590799,6.290909,0],[-75.59182,6.290043,0],[-75.592262,6.290339,0],[-75.592892,6.29155,0],[-75.594393,6.289209,0],[-75.595851,6.287295,0],[-75.598548,6.290062,0],[-75.599997,6.290454,0],[-75.602373,6.28826,0],[-75.601138,6.285514,0],[-75.602181,6.284501,0],[-75.604155,6.286143,0],[-75.606136,6.285337,0],[-75.607624,6.287958,0],[-75.609756,6.287465,0],[-75.610309,6.285931,0],[-75.609385,6.283906,0],[-75.607902,6.282093,0],[-75.606907,6.280176,0],[-75.606118,6.279499,0],[-75.606601,6.27742,0],[-75.603903,6.276993,0],[-75.603908,6.278209,0],[-75.601725,6.278507,0],[-75.600805,6.279318,0],[-75.600786,6.280214,0],[-75.59864,6.279894,0],[-75.598554,6.277035,0],[-75.59885,6.274734,0],[-75.596911,6.273424,0],[-75.594799,6.273031,0],[-75.593859,6.271968,0],[-75.591808,6.269202,0],[-75.589751,6.267187,0],[-75.587201,6.265514,0],[-75.584032,6.261912,0],[-75.583475,6.260677,0],[-75.58264,6.259762,0],[-75.577394,6.258293,0],[-75.576494,6.256578,0]]]},"properties":{"name":"Pilarica","id": 7}},
{"type":"Feature","geometry":{"type":"Polygon","coordinates":[[[-75.635783,6.147976,0],[-75.634437,6.147647,0],[-75.633676,6.151513,0],[-75.632861,6.152347,0],[-75.63402,6.152838,0],[-75.634921,6.153691,0],[-75.635822,6.154459,0],[-75.635093,6.155227,0],[-75.63535,6.156593,0],[-75.635865,6.158555,0],[-75.636938,6.160177,0],[-75.636209,6.160603,0],[-75.636123,6.161713,0],[-75.635479,6.162822,0],[-75.636252,6.163517,0],[-75.636359,6.164243,0],[-75.636402,6.16452,0],[-75.636423,6.165117,0],[-75.636552,6.166035,0],[-75.635758,6.16676,0],[-75.63623,6.167229,0],[-75.638076,6.167144,0],[-75.638444,6.167731,0],[-75.638916,6.167902,0],[-75.63825,6.168499,0],[-75.63677,6.17155,0],[-75.637443,6.174323,0],[-75.637258,6.175285,0],[-75.636585,6.175681,0],[-75.635939,6.175468,0],[-75.635506,6.174879,0],[-75.635066,6.174941,0],[-75.634611,6.175355,0],[-75.634552,6.175655,0],[-75.635077,6.176659,0],[-75.636665,6.178033,0],[-75.636798,6.178468,0],[-75.636406,6.178732,0],[-75.636723,6.179834,0],[-75.63925,6.184645,0],[-75.640124,6.186226,0],[-75.639054,6.186382,0],[-75.639358,6.187033,0],[-75.640145,6.187748,0],[-75.640599,6.187931,0],[-75.641493,6.187708,0],[-75.641982,6.18883,0],[-75.64285,6.189741,0],[-75.644062,6.18939,0],[-75.644234,6.189206,0],[-75.643869,6.188009,0],[-75.645532,6.187354,0],[-75.649501,6.188231,0],[-75.655507,6.189087,0],[-75.659754,6.188877,0],[-75.662487,6.187464,0],[-75.660596,6.18411,0],[-75.663126,6.182091,0],[-75.663125,6.18057,0],[-75.659692,6.179891,0],[-75.658318,6.180065,0],[-75.656773,6.178757,0],[-75.65716,6.175874,0],[-75.657009,6.17441,0],[-75.652868,6.172222,0],[-75.653164,6.169694,0],[-75.653164,6.168883,0],[-75.652262,6.168968,0],[-75.655223,6.165726,0],[-75.653421,6.163891,0],[-75.651662,6.162995,0],[-75.65385,6.162355,0],[-75.656082,6.159923,0],[-75.654365,6.15459,0],[-75.652434,6.153608,0],[-75.649902,6.15156,0],[-75.647456,6.151731,0],[-75.645868,6.151944,0],[-75.644362,6.151494,0],[-75.644237,6.150323,0],[-75.643379,6.14964,0],[-75.638873,6.149597,0],[-75.637559,6.149275,0],[-75.637656,6.148249,0],[-75.635783,6.147976,0]]]},"properties":{"name":"San Antonio","id": 8}},
{"type":"Feature","geometry":{"type":"Polygon","coordinates":[[[-75.63242,6.146708,0],[-75.628316,6.147595,0],[-75.627402,6.146688,0],[-75.626407,6.147232,0],[-75.621901,6.141968,0],[-75.62167,6.139699,0],[-75.621036,6.139441,0],[-75.619854,6.140644,0],[-75.618124,6.140736,0],[-75.616811,6.14096,0],[-75.613878,6.142547,0],[-75.613595,6.142212,0],[-75.613014,6.142472,0],[-75.612004,6.143385,0],[-75.61357,6.146176,0],[-75.612141,6.147422,0],[-75.61183,6.148042,0],[-75.611789,6.14833,0],[-75.612505,6.14888,0],[-75.612247,6.149383,0],[-75.611645,6.149811,0],[-75.609835,6.150466,0],[-75.609887,6.151062,0],[-75.609353,6.152001,0],[-75.608873,6.152659,0],[-75.609933,6.153635,0],[-75.61004,6.153547,0],[-75.608435,6.155015,0],[-75.607438,6.155646,0],[-75.606741,6.15648,0],[-75.605696,6.156994,0],[-75.604576,6.157572,0],[-75.602074,6.160257,0],[-75.605186,6.16318,0],[-75.603405,6.164822,0],[-75.601817,6.17086,0],[-75.595988,6.175684,0],[-75.593582,6.177254,0],[-75.592321,6.178864,0],[-75.590433,6.181817,0],[-75.588954,6.184093,0],[-75.587185,6.18571,0],[-75.585276,6.187098,0],[-75.584373,6.187899,0],[-75.583682,6.188715,0],[-75.583438,6.189451,0],[-75.583133,6.190388,0],[-75.583172,6.191324,0],[-75.592096,6.19241,0],[-75.592076,6.192942,0],[-75.594443,6.193459,0],[-75.595413,6.193646,0],[-75.595351,6.193922,0],[-75.595418,6.194196,0],[-75.596978,6.195366,0],[-75.597349,6.195085,0],[-75.597774,6.194976,0],[-75.598066,6.194836,0],[-75.598165,6.19462,0],[-75.598312,6.194424,0],[-75.599131,6.19407,0],[-75.600282,6.191777,0],[-75.603044,6.190113,0],[-75.608989,6.189472,0],[-75.612594,6.193376,0],[-75.619825,6.189857,0],[-75.617754,6.187276,0],[-75.613495,6.183265,0],[-75.613366,6.179121,0],[-75.613409,6.177078,0],[-75.618086,6.174049,0],[-75.618521,6.173622,0],[-75.618836,6.173236,0],[-75.619795,6.173297,0],[-75.626262,6.173913,0],[-75.625299,6.178939,0],[-75.627168,6.179698,0],[-75.629963,6.17567,0],[-75.630977,6.175052,0],[-75.631694,6.175286,0],[-75.632481,6.175376,0],[-75.634156,6.175497,0],[-75.634368,6.17553,0],[-75.634348,6.175709,0],[-75.634939,6.176662,0],[-75.634848,6.177357,0],[-75.634962,6.177728,0],[-75.63473,6.178197,0],[-75.634735,6.178519,0],[-75.635102,6.17888,0],[-75.635692,6.179154,0],[-75.636277,6.178936,0],[-75.636141,6.178216,0],[-75.635738,6.177978,0],[-75.635323,6.177975,0],[-75.63512,6.177666,0],[-75.635044,6.177328,0],[-75.635015,6.177047,0],[-75.635077,6.176659,0],[-75.634552,6.175655,0],[-75.634611,6.175355,0],[-75.635066,6.174941,0],[-75.635506,6.174879,0],[-75.635939,6.175468,0],[-75.636585,6.175681,0],[-75.637258,6.175285,0],[-75.637443,6.174323,0],[-75.63677,6.17155,0],[-75.63825,6.168499,0],[-75.638916,6.167902,0],[-75.638444,6.167731,0],[-75.638076,6.167144,0],[-75.63623,6.167229,0],[-75.635758,6.16676,0],[-75.636552,6.166035,0],[-75.636252,6.163517,0],[-75.635479,6.162822,0],[-75.636123,6.161713,0],[-75.636209,6.160603,0],[-75.636938,6.160177,0],[-75.635865,6.158555,0],[-75.635093,6.155227,0],[-75.635822,6.154459,0],[-75.63402,6.152838,0],[-75.632861,6.152347,0],[-75.633676,6.151513,0],[-75.634437,6.147647,0],[-75.63242,6.146708,0]]]},"properties":{"name":"Itagui","id": 9}},
{"type":"Feature","geometry":{"type":"Polygon","coordinates":[[[-75.561688,6.292944,0],[-75.561902,6.292124,0],[-75.562205,6.291158,0],[-75.563509,6.289566,0],[-75.563974,6.28865,0],[-75.5643,6.287735,0],[-75.564094,6.286724,0],[-75.564155,6.286206,0],[-75.564024,6.285699,0],[-75.564348,6.285416,0],[-75.564501,6.284941,0],[-75.565022,6.284534,0],[-75.565059,6.28385,0],[-75.565419,6.283064,0],[-75.565971,6.282672,0],[-75.566251,6.282071,0],[-75.566392,6.281471,0],[-75.566298,6.281197,0],[-75.566557,6.280957,0],[-75.566215,6.280394,0],[-75.566644,6.280055,0],[-75.566416,6.279468,0],[-75.56607,6.278891,0],[-75.565796,6.277971,0],[-75.565349,6.277105,0],[-75.565931,6.276782,0],[-75.565963,6.276342,0],[-75.566562,6.276353,0],[-75.567193,6.276225,0],[-75.567776,6.276438,0],[-75.568552,6.276598,0],[-75.568936,6.275791,0],[-75.570243,6.27091,0],[-75.57097,6.267946,0],[-75.566821,6.267266,0],[-75.562864,6.266603,0],[-75.55959,6.26591,0],[-75.556283,6.265259,0],[-75.552096,6.265016,0],[-75.547501,6.26456,0],[-75.546823,6.264584,0],[-75.546585,6.264745,0],[-75.542496,6.264309,0],[-75.542432,6.264448,0],[-75.54231,6.264984,0],[-75.542189,6.265816,0],[-75.542386,6.26597,0],[-75.542426,6.266245,0],[-75.54225,6.266491,0],[-75.54216,6.266818,0],[-75.542032,6.267926,0],[-75.542281,6.268072,0],[-75.543627,6.267856,0],[-75.544236,6.267571,0],[-75.544441,6.267848,0],[-75.544715,6.268184,0],[-75.544893,6.268959,0],[-75.545155,6.269342,0],[-75.545223,6.270779,0],[-75.545575,6.271501,0],[-75.545819,6.272269,0],[-75.545695,6.272829,0],[-75.545707,6.273199,0],[-75.545993,6.273555,0],[-75.546364,6.273826,0],[-75.546478,6.274441,0],[-75.546469,6.275148,0],[-75.545873,6.275041,0],[-75.545424,6.274948,0],[-75.545164,6.275107,0],[-75.544942,6.275314,0],[-75.544967,6.275951,0],[-75.54503,6.276604,0],[-75.545084,6.277247,0],[-75.545221,6.277691,0],[-75.545224,6.278215,0],[-75.54522,6.278626,0],[-75.545124,6.278983,0],[-75.545153,6.279244,0],[-75.545104,6.279388,0],[-75.54507,6.279762,0],[-75.545635,6.27982,0],[-75.545483,6.280345,0],[-75.545324,6.281037,0],[-75.545455,6.282037,0],[-75.545447,6.28249,0],[-75.54558,6.282899,0],[-75.545796,6.28317,0],[-75.545676,6.283422,0],[-75.545749,6.283682,0],[-75.545943,6.284056,0],[-75.545875,6.284204,0],[-75.545476,6.284291,0],[-75.544986,6.284369,0],[-75.5446,6.284605,0],[-75.544487,6.284806,0],[-75.544502,6.285062,0],[-75.544485,6.285511,0],[-75.544204,6.285946,0],[-75.544152,6.286412,0],[-75.544126,6.286832,0],[-75.544237,6.287484,0],[-75.544569,6.287701,0],[-75.544906,6.288066,0],[-75.545279,6.288508,0],[-75.547055,6.288985,0],[-75.546852,6.289838,0],[-75.549445,6.28983,0],[-75.552093,6.290577,0],[-75.55173,6.29401,0],[-75.551567,6.294463,0],[-75.551489,6.294988,0],[-75.551002,6.29578,0],[-75.552184,6.29643,0],[-75.553488,6.297206,0],[-75.553954,6.297568,0],[-75.555413,6.298469,0],[-75.557457,6.299722,0],[-75.557914,6.298625,0],[-75.557819,6.298233,0],[-75.55767,6.297831,0],[-75.557693,6.297386,0],[-75.557899,6.297037,0],[-75.558827,6.296051,0],[-75.559318,6.295499,0],[-75.559981,6.295065,0],[-75.560526,6.294575,0],[-75.560996,6.294084,0],[-75.561401,6.293514,0],[-75.561688,6.292944,0]]]},"properties":{"name":"Manrique","id": 10}},
{"type":"Feature","geometry":{"type":"Polygon","coordinates":[[[-75.56022,6.266027,0],[-75.563347,6.266683,0],[-75.57097,6.267946,0],[-75.571671,6.265087,0],[-75.572511,6.262228,0],[-75.571758,6.258979,0],[-75.571287,6.258696,0],[-75.571798,6.258237,0],[-75.570997,6.257638,0],[-75.571648,6.257039,0],[-75.571476,6.256387,0],[-75.571284,6.255934,0],[-75.571209,6.255487,0],[-75.571286,6.254683,0],[-75.57115,6.254113,0],[-75.570941,6.253762,0],[-75.570149,6.253376,0],[-75.567771,6.252475,0],[-75.567794,6.251847,0],[-75.567979,6.251198,0],[-75.568471,6.2499,0],[-75.570689,6.244694,0],[-75.5657,6.242879,0],[-75.564163,6.242228,0],[-75.563265,6.24162,0],[-75.562651,6.241951,0],[-75.562408,6.242221,0],[-75.561947,6.242413,0],[-75.561513,6.242403,0],[-75.561079,6.242246,0],[-75.560745,6.242,0],[-75.560767,6.241216,0],[-75.560806,6.240444,0],[-75.560837,6.240084,0],[-75.560869,6.239718,0],[-75.561006,6.239598,0],[-75.561119,6.239495,0],[-75.561294,6.239421,0],[-75.561403,6.238973,0],[-75.560938,6.238901,0],[-75.559415,6.237529,0],[-75.558589,6.236779,0],[-75.558284,6.236526,0],[-75.558176,6.236606,0],[-75.557764,6.236428,0],[-75.553559,6.234184,0],[-75.553073,6.235075,0],[-75.553015,6.235704,0],[-75.552621,6.236304,0],[-75.552224,6.236109,0],[-75.551656,6.235768,0],[-75.551031,6.235624,0],[-75.550074,6.235538,0],[-75.548414,6.234554,0],[-75.547605,6.234089,0],[-75.546893,6.233922,0],[-75.546477,6.235101,0],[-75.547088,6.235625,0],[-75.546736,6.236596,0],[-75.546196,6.237524,0],[-75.545228,6.23902,0],[-75.5451431,6.2392636,0],[-75.5448134,6.2393431,0],[-75.5443978,6.2386015,0],[-75.5441478,6.2379121,0],[-75.5437904,6.2372761,0],[-75.5434867,6.2371467,0],[-75.5433744,6.2374263,0],[-75.543231,6.2375736,0],[-75.5432218,6.2378329,0],[-75.5430773,6.2377489,0],[-75.5430238,6.2377256,0],[-75.542981,6.2377609,0],[-75.542895,6.2378423,0],[-75.5428319,6.2378929,0],[-75.5428036,6.2379542,0],[-75.5427177,6.2380637,0],[-75.5425433,6.2381185,0],[-75.5424398,6.2385056,0],[-75.5418736,6.23873,0],[-75.5418652,6.2388204,0],[-75.5419453,6.2389774,0],[-75.5421119,6.2391985,0],[-75.5422678,6.2394129,0],[-75.5424701,6.2397225,0],[-75.5427208,6.2395668,0],[-75.5430311,6.2393516,0],[-75.5432842,6.2392121,0],[-75.5435615,6.2396618,0],[-75.5436742,6.2398169,0],[-75.5437454,6.2399773,0],[-75.5437791,6.2400689,0],[-75.5442366,6.2399173,0],[-75.5445739,6.2398082,0],[-75.5448978,6.2397338,0],[-75.5448577,6.2394996,0],[-75.545059,6.2394574,0],[-75.545253,6.239621,0],[-75.546789,6.240055,0],[-75.547595,6.241076,0],[-75.548212,6.242058,0],[-75.54935,6.242657,0],[-75.550106,6.242759,0],[-75.551125,6.242722,0],[-75.552592,6.242888,0],[-75.551645,6.244407,0],[-75.551553,6.24546,0],[-75.551321,6.245936,0],[-75.551339,6.246365,0],[-75.552198,6.246877,0],[-75.550124,6.247214,0],[-75.548549,6.24719,0],[-75.548527,6.248942,0],[-75.548815,6.248978,0],[-75.548753,6.249637,0],[-75.549484,6.249431,0],[-75.550122,6.249211,0],[-75.551389,6.249096,0],[-75.552228,6.248914,0],[-75.552662,6.248971,0],[-75.552195,6.249624,0],[-75.552056,6.249974,0],[-75.552002,6.25036,0],[-75.552029,6.250493,0],[-75.552344,6.250435,0],[-75.552748,6.250508,0],[-75.553122,6.250764,0],[-75.553695,6.250803,0],[-75.554021,6.250884,0],[-75.554714,6.25066,0],[-75.555071,6.250647,0],[-75.554768,6.251849,0],[-75.55369,6.253433,0],[-75.553032,6.253718,0],[-75.552539,6.253847,0],[-75.551058,6.254697,0],[-75.550897,6.254501,0],[-75.55064,6.254402,0],[-75.550184,6.254789,0],[-75.550165,6.255041,0],[-75.550205,6.255278,0],[-75.549387,6.255548,0],[-75.548984,6.256235,0],[-75.54967,6.256727,0],[-75.548792,6.258056,0],[-75.548977,6.258271,0],[-75.548604,6.258785,0],[-75.548441,6.25896,0],[-75.5475,6.260463,0],[-75.547633,6.261063,0],[-75.547177,6.261117,0],[-75.546919,6.262094,0],[-75.546018,6.262299,0],[-75.544968,6.261648,0],[-75.544707,6.261561,0],[-75.54314,6.261332,0],[-75.542874,6.262006,0],[-75.542695,6.262221,0],[-75.54269,6.262969,0],[-75.542724,6.263075,0],[-75.542496,6.264309,0],[-75.546585,6.264745,0],[-75.546823,6.264584,0],[-75.547501,6.26456,0],[-75.552195,6.265003,0],[-75.556283,6.265259,0],[-75.56022,6.266027,0]]]},"properties":{"name":"Manrique Piloto","description":"Zona Manrique Piloto","id": 11}}
]}
